$GPGGA,123519,4807.038,N,01131.000,E,1,08,0.9,545.4,M,46.9,M,,*47
$GPGSA,A,3,04,05,06,07,08,09,10,11,12,13,14,15,1.0,0.9,0.8*10
$GPGSV,3,1,12,04,40,083,41,05,59,038,39,06,34,218,43,07,52,174,38*77
$GPGSV,3,2,12,08,24,309,42,09,45,022,42,10,28,127,41,11,36,047,43*7A
$GPGSV,3,3,12,12,15,271,37,13,22,096,36*4F
$GPRMC,123519,A,4807.038,N,01131.000,E,022.4,084.4,230394,003.1,W*6A
$GPGLL,4807.038,N,01131.000,E,123519,A*2C
$GPGGA,123520,4807.038,N,01131.000,E,1,08,0.9,545.4,M,46.9,M,,*46
$GPGSA,A,3,04,05,06,07,08,09,10,11,12,13,14,15,1.0,0.9,0.8*10
$GPRMC,123520,A,4807.038,N,01131.000,E,023.1,085.2,230394,003.1,W*6F
$GPGGA,123521,4807.038,N,01131.001,E,1,08,0.9,545.4,M,46.9,M,,*45
$GPRMC,123521,A,4807.038,N,01131.001,E,023.8,086.1,230394,003.1,W*62
$GPGGA,123522,4807.039,N,01131.002,E,1,08,0.9,545.5,M,46.9,M,,*40
$GPRMC,123522,A,4807.039,N,01131.002,E,024.5,087.0,230394,003.1,W*63
$GPGGA,123523,4807.039,N,01131.003,E,1,08,0.9,545.5,M,46.9,M,,*43
$GPRMC,123523,A,4807.039,N,01131.003,E,025.2,087.9,230394,003.1,W*6C
$GPGGA,123524,4807.040,N,01131.004,E,1,08,0.9,545.6,M,46.9,M,,*4D
$GPRMC,123524,A,4807.040,N,01131.004,E,025.9,088.8,230394,003.1,W*65
$GPGGA,123525,4807.040,N,01131.005,E,1,08,0.9,545.6,M,46.9,M,,*4E
$GPRMC,123525,A,4807.040,N,01131.005,E,026.6,089.7,230394,003.1,W*6E
$GPGGA,123526,4807.041,N,01131.006,E,1,08,0.9,545.7,M,46.9,M,,*4F
$GPRMC,123526,A,4807.041,N,01131.006,E,027.3,090.6,230394,003.1,W*6F
$GPGGA,123527,4807.041,N,01131.007,E,1,08,0.9,545.7,M,46.9,M,,*48
$GPRMC,123527,A,4807.041,N,01131.007,E,028.0,091.5,230394,003.1,W*60
$GPGGA,123528,4807.042,N,01131.008,E,1,08,0.9,545.8,M,46.9,M,,*41
$GPRMC,123528,A,4807.042,N,01131.008,E,028.7,092.4,230394,003.1,W*61
$GPGGA,123529,4807.042,N,01131.009,E,1,08,0.9,545.8,M,46.9,M,,*40
$GPRMC,123529,A,4807.042,N,01131.009,E,029.4,093.3,230394,003.1,W*68
$GPGGA,123530,4807.043,N,01131.010,E,1,08,0.9,545.9,M,46.9,M,,*43
$GPRMC,123530,A,4807.043,N,01131.010,E,030.1,094.2,230394,003.1,W*69
